{"fetched_at":"2026-03-29T16:36:15Z","count":15609,"tles":[{"name":"STARLINK-33941","line1":"1 63765U 25089Q   26087.89938049  .00030874  00000+0  11247-2 0  9992","line2":"2 63765  43.0071 296.9025 0002337 262.8768  97.1818 15.27639182 51881","category":"Starlink"}]}