{
  "norad_id": 63765,
  "name": "STARLINK-33941",
  "history": [
    {
      "epoch": "2026-03-28T21:35:06.474336Z",
      "apogee_km": 484.4753073396769,
      "perigee_km": 481.268471784696,
      "latitude_deg": -2.3015821829592386e-06,
      "longitude_deg": 146.81231535808308,
      "height_km": 482.84888121197855,
      "semi_major_axis_km": 6861.008889562187,
      "eccentricity": 0.0002337,
      "inclination_deg": 43.0071,
      "raan_deg": 296.9025,
      "arg_perigee_deg": 262.8768,
      "mean_anomaly_deg": 97.1818,
      "mean_motion_rev_day": 15.27639182
    }
  ]
}